{"type":"FeatureCollection","features":[{"type":"Feature","id":1,"geometry":{"type":"Polygon","coordinates":[[[-122.16791238306325,44.273512713790154],[-122.16785651167697,44.274142519628874],[-122.16801895512587,44.27434177569414],[-122.16812497386164,44.274599138689233],[-122.16831343291156,44.274897618342344],[-122.1684350942993,44.275101077036638],[-122.16863084577562,44.274715376544968],[-122.16871027290102,44.274414354516139],[-122.16867415763593,44.274031460194372],[-122.16895464233494,44.273412298770751],[-122.16968779302186,44.272904479592903],[-122.17068649910813,44.272335571241697],[-122.1714806632656,44.271886705435612],[-122.17245440302318,44.271308596627762],[-122.17218956027568,44.271095096759353],[-122.17197286526012,44.270854937670272],[-122.17170217892308,44.270555864923395],[-122.1714309266102,44.270297301208828],[-122.1712147431987,44.270021132075122],[-122.17099723416224,44.269839485106168],[-122.17075257273062,44.269639633560658],[-122.1706465510948,44.269382272767395],[-122.1703205353358,44.269064786928148],[-122.17013043885447,44.268883338273639],[-122.16999562256736,44.268724800498276],[-122.17008341058536,44.268329305981922],[-122.17014151338013,44.26809565008633],[-122.17024940491331,44.267718308269345],[-122.17024514969034,44.267686766453942],[-122.17019532113721,44.267443319790011],[-122.17022074946681,44.267249939215134],[-122.17012447047212,44.267024159678193],[-122.17004258667366,44.266888515890209],[-122.16984003309513,44.266702474201566],[-122.16933180795418,44.267036378055067],[-122.16915510533867,44.267183637846557],[-122.16893868065318,44.267371120902375],[-122.16874593535157,44.267545272035825],[-122.16861502539204,44.267665856504415],[-122.16839834357243,44.267871342801058],[-122.16825846028185,44.268072888914823],[-122.16817819339195,44.268378406341292],[-122.16807449805165,44.268679250757209],[-122.16804868138271,44.268899637206964],[-122.16802993357972,44.269174093807109],[-122.1679956515846,44.26943943365896],[-122.1679596560837,44.269826302439313],[-122.16793288661493,44.270114204894845],[-122.16791246636237,44.270451670687493],[-122.16794702897351,44.270722015749669],[-122.16796637475255,44.270960738698633],[-122.16796263097945,44.271226301903482],[-122.16792957462958,44.271460139865454],[-122.16789471956319,44.271765989207921],[-122.1678963730847,44.272148631773561],[-122.1678921211446,44.272450203479814],[-122.16792687507268,44.272707045248588],[-122.16793140603055,44.272941158181332],[-122.16792855029803,44.2731437063171],[-122.16790793832625,44.273494675131786],[-122.16791238306325,44.273512713790154]]]},"properties":{"GAGEDWS_":2,"WS_":"8","HECTARES":16.031700134277344,"F_AREA":160321.463632,"OBJECTID":1,"Shape_Length":2136.5336770063814,"Shape_Area":160321.46363218201}},{"type":"Feature","id":2,"geometry":{"type":"Polygon","coordinates":[[[-122.1804703360707,44.26575323796088],[-122.18026831918316,44.265639243268467],[-122.17994086615623,44.265479328218355],[-122.17969537891413,44.265338009743608],[-122.17934030463904,44.265137379835657],[-122.17903913470532,44.265058679561101],[-122.17871146885921,44.264858245571773],[-122.17843833211646,44.264734730801763],[-122.17808129121332,44.264732150435357],[-122.17769606292369,44.264729365104358],[-122.17711868985614,44.264747695762729],[-122.17670524102506,44.264803222858092],[-122.17635819026206,44.264814214058219],[-122.17597549424266,44.264910475125774],[-122.1757987227231,44.26500822776773],[-122.17569849497082,44.265120039681847],[-122.17561993913586,44.26525001478916],[-122.17558842536191,44.26537582938753],[-122.17560204500052,44.2654659589072],[-122.17558559656436,44.2655783781126],[-122.17555329953579,44.265704187015693],[-122.17564186424947,44.26586688452052],[-122.175678471224,44.26599319298311],[-122.17572234269356,44.266160067935274],[-122.17578826424145,44.266318099625103],[-122.17581578478845,44.266534372922038],[-122.17585912539046,44.266683237805886],[-122.17581890133668,44.266872010828713],[-122.17584742775692,44.267016266790748],[-122.1758368952089,44.267209756550074],[-122.17583412992751,44.267407804138188],[-122.17583193025162,44.267565341987314],[-122.17585155838023,44.267786059557309],[-122.17587945683373,44.26797532630129],[-122.17590710408149,44.268182597356692],[-122.17589685173623,44.268412101402809],[-122.17585578066254,44.268605369781497],[-122.17580766197234,44.268798587055976],[-122.1757746092905,44.268978408906555],[-122.17566628727026,44.26922070659279],[-122.1766143829969,44.268678388630811],[-122.17754607858478,44.268243981031254],[-122.17825202915348,44.267992497572507],[-122.17923563055892,44.267427906754911],[-122.17990641587612,44.266888060893301],[-122.18063826343699,44.266348651114029],[-122.18066754705853,44.266326354449021],[-122.18087513065096,44.266152290153023],[-122.18051380904789,44.265780560516973],[-122.1804703360707,44.26575323796088]]]},"properties":{"GAGEDWS_":3,"WS_":"7","HECTARES":12.420000076293945,"F_AREA":124203.133912,"OBJECTID":2,"Shape_Length":1490.6456714003455,"Shape_Area":124203.13391261215}},{"type":"Feature","id":3,"geometry":{"type":"Polygon","coordinates":[[[-122.1804703360707,44.26575323796088],[-122.18051380904789,44.265780560516973],[-122.18087513065096,44.266152290153023],[-122.18109054303574,44.265978281862594],[-122.18152753150383,44.265580791514509],[-122.18200980282931,44.265192628341069],[-122.18231551460275,44.264717664295418],[-122.18289686531121,44.264298699076733],[-122.18354019685133,44.263983711364091],[-122.18383658710181,44.263841790100379],[-122.1837211128579,44.263471834976961],[-122.18369275553781,44.263314077532371],[-122.18363479642549,44.263088584452312],[-122.18359324393492,44.262809190671447],[-122.18351257991333,44.262583534472952],[-122.18339243102379,44.262438622335416],[-122.18322699598465,44.26228438167383],[-122.18296334604521,44.262097924255762],[-122.18273709233686,44.261925239649727],[-122.18241979629508,44.261711386094696],[-122.18218546680764,44.261556648467014],[-122.18190510422778,44.261446594543948],[-122.18162349480588,44.261426561766783],[-122.18144069501672,44.26145225511214],[-122.18130243184028,44.261541290432284],[-122.18105010818282,44.261611497925657],[-122.18080433077566,44.261717764352248],[-122.18043619602436,44.261895172992844],[-122.18024250228329,44.262141361377232],[-122.18007965468982,44.262365264169318],[-122.18002719976161,44.262477424394852],[-122.17959110235716,44.262924432554385],[-122.17936802448291,44.263143398165326],[-122.1790893862027,44.263415980684677],[-122.17905810151834,44.263694850253195],[-122.17902606534879,44.264027732843303],[-122.17913211426973,44.264285086230487],[-122.17932141050673,44.264525034244002],[-122.17945727577383,44.264665562506643],[-122.17983709304741,44.265001416700152],[-122.18002664450059,44.265223359191715],[-122.18027050691309,44.265481705223685],[-122.1804703360707,44.26575323796088]]]},"properties":{"GAGEDWS_":4,"WS_":"6","HECTARES":12.007499694824219,"F_AREA":120078.129797,"OBJECTID":3,"Shape_Length":1360.0716153934252,"Shape_Area":120078.129796394}},{"type":"Feature","id":4,"geometry":{"type":"Polygon","coordinates":[[[-122.14437705768827,44.219651826762828],[-122.1446907402479,44.21982074831665],[-122.14536210293997,44.219983354061767],[-122.14561136469239,44.22006175542402],[-122.14653065917017,44.220014637784864],[-122.14768120725338,44.219937734330841],[-122.1484886822914,44.219885261174184],[-122.14922776648012,44.219854779096735],[-122.14979212127791,44.219840992825922],[-122.15096508346608,44.21972821040503],[-122.15146005124569,44.219641870991637],[-122.1522055597336,44.219489872233162],[-122.15272328888322,44.219453215480847],[-122.15327185086679,44.219394277550229],[-122.1536908580626,44.219311864546832],[-122.15411636612372,44.219157471481601],[-122.15547917304779,44.218843478935497],[-122.15646304322941,44.218765249037574],[-122.15784354101528,44.218802490526109],[-122.15895840698201,44.21897730324347],[-122.15973711345714,44.219131615052497],[-122.16046448002938,44.219375576172467],[-122.16066766316975,44.2194491028675],[-122.16107644603493,44.219425109133894],[-122.16150656348471,44.219441786372592],[-122.16186567521626,44.219444433647915],[-122.16245831653232,44.219421789885345],[-122.16278124855164,44.219437672856976],[-122.16297840797802,44.219439124202843],[-122.16335443710656,44.219518419895621],[-122.16355089983423,44.219569383621227],[-122.16392538819655,44.219702686277365],[-122.16440862969276,44.219836786867212],[-122.164911110242,44.219826972901686],[-122.16539629126436,44.219767511265928],[-122.16597093993923,44.219744717229545],[-122.16701132075123,44.219765847930233],[-122.167442603496,44.219755501270342],[-122.16764354719308,44.219486871357887],[-122.16784379567041,44.219267754491916],[-122.16809805270043,44.219103052568443],[-122.16844040152971,44.218961502695727],[-122.16869242494882,44.218900321801861],[-122.1690349870822,44.218799286840316],[-122.16955834620354,44.218582527551376],[-122.17011769030117,44.218366028465795],[-122.1705694696342,44.218175752207578],[-122.17078549882751,44.218114304128832],[-122.17103914862098,44.217936086112395],[-122.17114799320335,44.217873855939146],[-122.17142001159597,44.217668760843182],[-122.17158280838738,44.217552903145872],[-122.17201877740264,44.217204946960919],[-122.17221862554663,44.217012829471514],[-122.17220044345935,44.217026202169478],[-122.17238576941818,44.216865490457373],[-122.17288293778681,44.216617013372982],[-122.1729258462853,44.216176160289422],[-122.17291621262569,44.215743928385521],[-122.17300518391821,44.215253891669754],[-122.17317779980085,44.214656422560005],[-122.1732597884109,44.214274375266164],[-122.17322552640906,44.213643889930971],[-122.17336105390271,44.213181201347574],[-122.17331327270963,44.212735186869807],[-122.17321886864433,44.212153782715312],[-122.17306482392215,44.211810534275841],[-122.17290339549582,44.211548262316803],[-122.1729929534644,44.211184276812631],[-122.17322685431601,44.210735808616704],[-122.17322494717945,44.210366656163771],[-122.17327592111057,44.209795312060486],[-122.17323580869537,44.209416878411659],[-122.17318778120877,44.208876326290095],[-122.17310167490379,44.20843003274954],[-122.17288475208893,44.207771208201549],[-122.17426432287589,44.206111105625673],[-122.17372212994061,44.205891086144455],[-122.17287444702194,44.205587812117976],[-122.17216281634575,44.205064939258314],[-122.17169526873333,44.204597860318927],[-122.17131189386059,44.204041358933637],[-122.1706680017291,44.203487458413512],[-122.17007198106984,44.20309146293755],[-122.16943736363693,44.202659168907779],[-122.16871853507295,44.202208249054273],[-122.16812237816578,44.201879767825709],[-122.16738154625206,44.201716787141564],[-122.16660418438252,44.201760611980845],[-122.16586627876647,44.202002795520599],[-122.16510513960289,44.202339339305432],[-122.16398599521099,44.202601219765278],[-122.16336928068598,44.202790257553104],[-122.16279097293608,44.2030290933617],[-122.16219813755647,44.203299331058119],[-122.16146742464663,44.203528033925544],[-122.16083192036132,44.203716919399461],[-122.16065282336697,44.203769618097922],[-122.16014979972537,44.203882948626465],[-122.15957814187772,44.203815702071452],[-122.1588156720223,44.203855082154057],[-122.15802296872602,44.203930246864019],[-122.15723059894961,44.204036920382578],[-122.15646901800936,44.204233850589475],[-122.1554788297472,44.204388563192111],[-122.1545186653717,44.204466961639994],[-122.15363529325278,44.204590940401459],[-122.15272799072039,44.204692225597057],[-122.15196525517648,44.204474961557843],[-122.15114033715453,44.204230218209368],[-122.15039983610291,44.203990601218116],[-122.14968188576081,44.203706131117862],[-122.14907926914005,44.20356207184755],[-122.14852991540511,44.203467926752786],[-122.14781399405773,44.203588612284868],[-122.14714396634689,44.203781664503154],[-122.14635198694661,44.204023316140521],[-122.14600218130482,44.204196256100715],[-122.14525620517601,44.204393228604182],[-122.14437992459673,44.204566707613004],[-122.14367844608007,44.204606445390212],[-122.14314288733935,44.204152243127218],[-122.14277623180971,44.203919894208092],[-122.14242437536153,44.203692157381127],[-122.14180612967775,44.203439901394518],[-122.14130945239056,44.203274092006033],[-122.14081342994987,44.203117288785947],[-122.14042378407808,44.203015307647938],[-122.13999672701694,44.202958059221238],[-122.13940294178154,44.203070612034232],[-122.13893860058985,44.20326517214896],[-122.13855859916626,44.20346937252139],[-122.13821594423621,44.203633339381],[-122.13794185809486,44.203761811395012],[-122.13757710140148,44.203993134135771],[-122.13708243619435,44.204227971906263],[-122.13649709490144,44.204565657988553],[-122.13575107964837,44.204816588258637],[-122.1350043496067,44.204954966017567],[-122.1342344882008,44.204962613901891],[-122.13352480524772,44.204813155993264],[-122.13300527213323,44.204552601027032],[-122.13253221389309,44.204323909949814],[-122.13206594267656,44.204059255204037],[-122.13154667138554,44.203888729345621],[-122.13095890201663,44.203695169381923],[-122.13025763222385,44.203667301031487],[-122.12992215088059,44.203660233685866],[-122.12927424818824,44.203727302926922],[-122.1281162001182,44.204015543701928],[-122.12839444251662,44.204778461059291],[-122.12845774316544,44.205422687141379],[-122.12857550440955,44.206247397753522],[-122.12863188057587,44.206990607588693],[-122.12877620635265,44.20872486130208],[-122.12886448742272,44.209693399197405],[-122.12897354473662,44.210419005167537],[-122.12909083281318,44.21106364371002],[-122.12939841254371,44.211696233691143],[-122.12960790446503,44.212616179767771],[-122.12966505345088,44.213521454691772],[-122.1298891825455,44.214297458269677],[-122.13005193663498,44.214883921420295],[-122.13011510196294,44.215325568984738],[-122.13022376609219,44.215812581199202],[-122.13050050115736,44.216309881591499],[-122.13060758124583,44.216531282314051],[-122.13119510582362,44.216589791791243],[-122.13195070209875,44.216658584440879],[-122.13269705643572,44.216610258008231],[-122.13340650855936,44.216570648891185],[-122.13413845569187,44.216490691515887],[-122.13493076728157,44.216456205363244],[-122.13571648466574,44.216552212270464],[-122.13654073261795,44.21668902140275],[-122.13717454704211,44.216900908610789],[-122.13782414026321,44.21721194883596],[-122.13855745166624,44.217523619491175],[-122.13929012000861,44.217664216814526],[-122.14016074796568,44.217949906212198],[-122.14083853157429,44.218153102157537],[-122.14167141489618,44.218127879138329],[-122.14228980915988,44.218272096447528],[-122.14263334069165,44.218486265540591],[-122.14295543223666,44.218830820692197],[-122.14322281666685,44.219008400737501],[-122.14368964994934,44.219300023974732],[-122.1441099303282,44.219510264777576],[-122.14437705768827,44.219651826762828]]]},"properties":{"GAGEDWS_":5,"WS_":"MACK","HECTARES":578.635009765625,"F_AREA":5786634.1410100004,"OBJECTID":4,"Shape_Length":10472.357373782785,"Shape_Area":5786634.1410069326}},{"type":"Feature","id":5,"geometry":{"type":"Polygon","coordinates":[[[-122.25530388641998,44.219505075403774],[-122.25596183386392,44.219950538913054],[-122.25600251813154,44.21995080450548],[-122.25608237293325,44.220009847825935],[-122.25612305724272,44.220010113375587],[-122.25620369463647,44.220069161718094],[-122.25624359659646,44.220069422118968],[-122.25628394349505,44.220096695590072],[-122.25865867157428,44.22009866207415],[-122.25869890992763,44.220071913626896],[-122.25869930233701,44.220040404304243],[-122.25882007316279,44.219955657542535],[-122.25881968311609,44.219924143130442],[-122.25890021544582,44.219866144772524],[-122.25890055170238,44.219839136779683],[-122.25898108383679,44.219781138363025],[-122.25898069370423,44.219749623950044],[-122.25910146353181,44.219664876882042],[-122.25910179969421,44.219637868887226],[-122.2591823313566,44.219579870324552],[-122.25918272350181,44.219548360996299],[-122.2592624725784,44.219490357289629],[-122.25926280866527,44.219463349293214],[-122.25938363350799,44.219374100585277],[-122.25938396953821,44.219347092587675],[-122.25946450052709,44.219289093820009],[-122.25946411013678,44.219257579404882],[-122.2595445849324,44.219204081912117],[-122.25954497687951,44.219172572579666],[-122.25966574471802,44.219087824897521],[-122.25966535422036,44.21905631048147],[-122.25974588453657,44.218998311509466],[-122.25978656818428,44.218998575751336],[-122.25982680527832,44.218971826895945],[-122.25986670653111,44.218972086028003],[-122.25994723653606,44.218914086911795],[-122.25998792012776,44.218914351081722],[-122.26002821302899,44.218883100820484],[-122.26006811422376,44.218883359881964],[-122.26014864391128,44.218825360621437],[-122.26018854506817,44.218825619640661],[-122.26022878186376,44.2187988706415],[-122.26026952131529,44.21879463337666],[-122.26034999475512,44.218741135306075],[-122.26038995178433,44.218736892920433],[-122.2604301884289,44.218710143849279],[-122.26047087188475,44.21871040784653],[-122.2605514009437,44.218652408297487],[-122.26059130198756,44.218652667175519],[-122.2606718308502,44.218594667540117],[-122.26071251422891,44.218594931450994],[-122.26075280653116,44.218563680929698],[-122.26079270751701,44.218563939737145],[-122.26087323606224,44.218505939957396],[-122.26091391938185,44.218506203796288],[-122.26095415563371,44.218479454537665],[-122.26099405656463,44.218479713274554],[-122.26107458479864,44.218421713350594],[-122.26111526806217,44.218421977117487],[-122.26115477766452,44.218390721379713],[-122.2611954609075,44.218390985117964],[-122.26127598882402,44.218332985049734],[-122.26131588965909,44.218333243673754],[-122.26135612561249,44.218306494271367],[-122.26139680879936,44.218306757937661],[-122.26143710054512,44.218275507170929],[-122.26143676288419,44.217987396340774],[-122.2614770543893,44.217956145557167],[-122.26147716098102,44.217379928918078],[-122.26151745204714,44.217348678114867],[-122.26151789629181,44.217060572305613],[-122.26143725760514,44.217001527677837],[-122.26143759267009,44.216974519658649],[-122.2613166070693,44.21688820327882],[-122.26127670720838,44.216887944659398],[-122.26123647219258,44.216914694044604],[-122.26115589008651,44.216914171663703],[-122.26111559913011,44.216945422342199],[-122.26103501698441,44.216944899875827],[-122.2609947818214,44.216971649174987],[-122.26091419964217,44.216971126623221],[-122.26087390852007,44.217002377215415],[-122.26083400858619,44.217002118440995],[-122.2607937174008,44.217033369004497],[-122.2607131351412,44.217032846310545],[-122.26067289977387,44.217059595494959],[-122.26059231748073,44.217059072715656],[-122.26055202612964,44.217090323192807],[-122.26047144379692,44.217089800327997],[-122.26043120828234,44.217116549426386],[-122.26035062591608,44.217116026476205],[-122.26031033439931,44.217147276867053],[-122.26022975199339,44.217146753831436],[-122.26018951633166,44.217173502843742],[-122.26010887794668,44.21717748105803],[-122.26006864220977,44.217204230027313],[-122.25998805973067,44.217203706820847],[-122.25994776796385,44.217234957082205],[-122.2598671854451,44.217234433790317],[-122.25982694956103,44.217261182673511],[-122.25978704946205,44.217260923532649],[-122.25974675755063,44.217292173722129],[-122.25966617495766,44.217291650288089],[-122.2596259389444,44.217318399099625],[-122.25954530032922,44.217322376914915],[-122.25950506424083,44.217349125683377],[-122.2594244815747,44.217348602078509],[-122.25938418941315,44.217379852138471],[-122.25934428923814,44.217379592842612],[-122.25926365230994,44.217320546691532],[-122.25922375217606,44.217320287353722],[-122.259102769135,44.217233968645772],[-122.25906208670648,44.217233704165729],[-122.25890159632564,44.217115616496976],[-122.25886169633314,44.217115357033336],[-122.25878100420104,44.217060811876863],[-122.25874032189451,44.217060547282799],[-122.25870003195577,44.217028773334725],[-122.25857954980934,44.217027989601981],[-122.25853920391503,44.217000716931629],[-122.25841872183007,44.216999933029534],[-122.25837837602957,44.216972660302659],[-122.2582977938964,44.216972135905309],[-122.25825744817099,44.216944863135886],[-122.25813696620736,44.216944078937161],[-122.25809667667387,44.216912304777438],[-122.25797613867364,44.216916021743138],[-122.25793584924612,44.216884247527027],[-122.25741240127905,44.216885339784618],[-122.25737216453639,44.216912087800878],[-122.25734556464195,44.216911914470927],[-122.25702298679295,44.217305961512466],[-122.25692971371632,44.21738188229665],[-122.25653594034566,44.217712439949842],[-122.25635875042254,44.218242484352089],[-122.2559529245375,44.2189105886631],[-122.25530388641998,44.219505075403774]]]},"properties":{"GAGEDWS_":6,"WS_":"10","HECTARES":0,"F_AREA":114473.709325,"OBJECTID":5,"Shape_Length":1483.9970854676994,"Shape_Area":114473.70932462082}},{"type":"Feature","id":6,"geometry":{"type":"Polygon","coordinates":[[[-122.25592054990396,44.203721628905697],[-122.25542797101845,44.20345281079301],[-122.25494079692906,44.20337759940913],[-122.25421206039218,44.203165754052144],[-122.2536284168913,44.202986366357464],[-122.25333944234623,44.202700865620614],[-122.25304912389041,44.202460372435873],[-122.25300113819824,44.202419542506661],[-122.25271036212155,44.202278083094079],[-122.25227468096641,44.202027631195833],[-122.25183816481179,44.201781673847528],[-122.25145188920119,44.201459515720046],[-122.25091975011374,44.20110488108066],[-122.25053166606155,44.200926756253871],[-122.24975680919762,44.200466971908455],[-122.2490784261562,44.200111359027986],[-122.24849605719213,44.199895930001539],[-122.2478164515439,44.199576315248024],[-122.24723409259252,44.199360879858382],[-122.24660240721686,44.199149616316021],[-122.24631080436065,44.199075655941627],[-122.24577472426452,44.199036086751676],[-122.24504351398834,44.1989637073398],[-122.2446065711439,44.198816749899244],[-122.24446208514247,44.198676236602729],[-122.24407357991559,44.19853410075352],[-122.24402430666584,44.198533773095761],[-122.24323614854366,44.199127256900248],[-122.24274442154747,44.199475115997735],[-122.24249507289666,44.199892113956743],[-122.24234566423023,44.200138712419289],[-122.24229238047202,44.20045347708065],[-122.24233186183105,44.201223532807127],[-122.24227451017974,44.201857891717061],[-122.24207488256057,44.202239206277731],[-122.24172992416666,44.202484499867182],[-122.24113815103772,44.203007251028893],[-122.24035082206009,44.203528692437459],[-122.23990899525306,44.203701305748908],[-122.23956480137913,44.203946597804787],[-122.23897491620635,44.204257769913795],[-122.23873000943382,44.204323655744865],[-122.23843343935825,44.204636788861563],[-122.23818714804051,44.204810705214314],[-122.2378901116063,44.205159847409121],[-122.2375953197846,44.205333437302322],[-122.23694055784934,44.205882754070828],[-122.23729893359494,44.205997701700177],[-122.23759107791122,44.206031173326572],[-122.23779877642319,44.206122600220063],[-122.23808976948644,44.206246096972819],[-122.23850712788263,44.206275903706619],[-122.23867411945729,44.206308534143908],[-122.23917552113981,44.206311891023184],[-122.23967692290945,44.206315245702235],[-122.24034571947706,44.206319716927389],[-122.24064016377115,44.206173127875303],[-122.24105826902235,44.206144408093671],[-122.24130817664972,44.206177588226367],[-122.24155966957788,44.206147754496811],[-122.24193362305806,44.206330317137869],[-122.24235132788856,44.206333101901691],[-122.24285084116939,44.206484986383906],[-122.24309924453902,44.206698220846846],[-122.24330615319536,44.20685265637406],[-122.2439741742308,44.206857101207142],[-122.24455927943254,44.206860991131194],[-122.24489407230143,44.206863215568909],[-122.24531064010088,44.206956016103028],[-122.24547575509996,44.207137180469161],[-122.24561622267355,44.207349692970155],[-122.24597226217695,44.207527621808225],[-122.24626327967916,44.207651097930338],[-122.24655543765131,44.207684546743174],[-122.24705725048112,44.207656359833607],[-122.24734980726463,44.207658297311383],[-122.24776865945007,44.207571035751037],[-122.24802085110174,44.20742414805521],[-122.24852304564472,44.207427469171733],[-122.2491903361682,44.207490400878513],[-122.24952439545547,44.207551129100814],[-122.24989947201333,44.207585116783385],[-122.25002467512212,44.207644465118506],[-122.25014903956125,44.207708309490933],[-122.25047965583103,44.207980592439533],[-122.2507303591255,44.208013757226269],[-122.25098067682535,44.208015406973537],[-122.25153551809989,44.207938025122729],[-122.25160916088772,44.207929505332949],[-122.25190171496412,44.207931426114854],[-122.25236054502247,44.207961447324308],[-122.25286307602327,44.207937732713219],[-122.25328191603609,44.207850443666928],[-122.25361671788356,44.207789612969258],[-122.25399409771154,44.207702049771903],[-122.2543281088859,44.207704235710644],[-122.25478805876146,44.20770724425752],[-122.25545573794079,44.207801642404569],[-122.2555793864134,44.207797948447485],[-122.25626098911691,44.207779890169697],[-122.25629065760025,44.207784585492384],[-122.25645626533986,44.207803672931],[-122.25698775641841,44.207465009668503],[-122.2573811740338,44.207219980117657],[-122.25733705492816,44.206868559477776],[-122.25734188256988,44.206481444121643],[-122.25749208484247,44.206167303326886],[-122.25764447380911,44.205677609959139],[-122.25775473387513,44.205178638551367],[-122.25746020080527,44.204834589995265],[-122.25716985129787,44.204657131149212],[-122.25688001316355,44.20437613558353],[-122.25654291429777,44.204058817279545],[-122.25646342208535,44.203909742251199],[-122.25600988152674,44.203771730945014],[-122.25592054990396,44.203721628905697]]]},"properties":{"GAGEDWS_":7,"WS_":"1","HECTARES":98.105300903320313,"F_AREA":981100.98641000001,"OBJECTID":6,"Shape_Length":4413.0327063429004,"Shape_Area":981100.9864095198}},{"type":"Feature","id":7,"geometry":{"type":"Polygon","coordinates":[[[-122.25592054990396,44.203721628905697],[-122.25614744187243,44.203655584467505],[-122.25640807920581,44.203580756352189],[-122.25653116589865,44.203496026938524],[-122.25665458932502,44.203384289329051],[-122.25694803195765,44.2031251038525],[-122.25713218206047,44.20303627021147],[-122.25730158273366,44.202938336729289],[-122.25760914866646,44.202800787763579],[-122.25791626751663,44.202636224796407],[-122.25802465727232,44.202537892932028],[-122.25814953357798,44.202309118686294],[-122.25827334385737,44.202165869859847],[-122.25841251637759,44.202045229420726],[-122.25861432102801,44.201794446682818],[-122.25881556382916,44.201588677036177],[-122.25892372806167,44.201445325730397],[-122.25900284227905,44.201247764896273],[-122.25889787290501,44.201071515561573],[-122.25859367843772,44.201002011227075],[-122.25824249767052,44.200999725928376],[-122.25801288214977,44.201034244820349],[-122.25782879878214,44.201055554659597],[-122.2576306928562,44.201072271143623],[-122.25721688064515,44.201137100344866],[-122.2569722910212,44.201180522967583],[-122.25672663379224,44.201309470622554],[-122.25652712653422,44.20137569488061],[-122.25618906187319,44.201513041897044],[-122.25586658237386,44.201654991392935],[-122.25565209966923,44.201730119758082],[-122.25536051552679,44.201840757639637],[-122.25509960310916,44.201938090132828],[-122.25480863642775,44.201999211818368],[-122.25454811678713,44.202065033642207],[-122.25437927764631,44.202117949621979],[-122.25401170743244,44.202237090297587],[-122.25381219406138,44.202303309775083],[-122.2535359160288,44.202378029530919],[-122.25304912389041,44.202460372435873],[-122.25333944234623,44.202700865620614],[-122.2536284168913,44.202986366357464],[-122.25421206039218,44.203165754052144],[-122.25494079692906,44.20337759940913],[-122.25542797101845,44.20345281079301],[-122.25592054990396,44.203721628905697]]]},"properties":{"GAGEDWS_":8,"WS_":"9","HECTARES":0,"F_AREA":71630.872650200006,"OBJECTID":7,"Shape_Length":1183.7212377801147,"Shape_Area":71630.872649970304}},{"type":"Feature","id":8,"geometry":{"type":"Polygon","coordinates":[[[-122.24230057166095,44.218987047053062],[-122.24170955259505,44.219437777153878],[-122.24116052942659,44.21978524550584],[-122.24117684499041,44.219794357818685],[-122.24171948535,44.219824989280831],[-122.24220430616909,44.219787707266768],[-122.24238918143396,44.219770932865735],[-122.24297515978569,44.219716314984126],[-122.24360266133881,44.219657468724058],[-122.24456297030368,44.219762892473113],[-122.2445426146371,44.219209048483364],[-122.24386490606157,44.218785884368906],[-122.24282256208372,44.218180219944067],[-122.24230057166095,44.218987047053062]]]},"properties":{"GAGEDWS_":9,"WS_":"3a","HECTARES":0,"F_AREA":25046.3984848,"OBJECTID":8,"Shape_Length":740.67884771366369,"Shape_Area":25046.39848468496}},{"type":"Feature","id":9,"geometry":{"type":"Polygon","coordinates":[[[-122.24230057166095,44.218987047053062],[-122.24282256208372,44.218180219944067],[-122.24278619126834,44.218148465777084],[-122.24253923063442,44.217818196417632],[-122.24212299161957,44.217693876079785],[-122.24208685721628,44.217274977248636],[-122.24167173341245,44.217002106665269],[-122.24109226733646,44.216548069532557],[-122.24055545914773,44.21606280256615],[-122.24005937674971,44.215636327421251],[-122.23977212800526,44.215215748664974],[-122.23927761189195,44.214667734682649],[-122.23873769294327,44.214367007965578],[-122.23882641025155,44.213975954181535],[-122.23883331833889,44.213435796414288],[-122.23863060203371,44.212952756867672],[-122.23851084646466,44.212528794816308],[-122.23834608378205,44.212320612721946],[-122.2381809765793,44.212139438284346],[-122.23747837974126,44.211531499510137],[-122.2368951333452,44.211379029527976],[-122.23648091539542,44.211101644341525],[-122.23619371424174,44.210681056691996],[-122.23545006941129,44.209982795521313],[-122.23487034564251,44.209618758880801],[-122.23449639363692,44.20943617323276],[-122.23370315441528,44.209372306760692],[-122.23320213312365,44.209337416444924],[-122.23245035635325,44.209273820943849],[-122.23199004118979,44.20929772227786],[-122.23119639979666,44.209265347605964],[-122.23090773325487,44.208961781001442],[-122.23074460433335,44.208690575121473],[-122.23058028733116,44.208450872877847],[-122.2303672469332,44.208107301377041],[-122.22994586956109,44.208266509185279],[-122.2296502564856,44.208440072818938],[-122.22896508272848,44.208610994233496],[-122.22832747063396,44.208854261607662],[-122.22768991169369,44.209093024058461],[-122.22710022669781,44.209440149247754],[-122.22665966210589,44.209509180378326],[-122.22631631519474,44.209682410586502],[-122.22587305438,44.209958498558834],[-122.22517346276882,44.21045342135416],[-122.22523877110251,44.21102558233968],[-122.22540067086301,44.211449845332048],[-122.22543703443105,44.211841740929074],[-122.22543193683981,44.212233354006706],[-122.22551212709767,44.212504002266122],[-122.225756626456,44.213014359622171],[-122.22604411482638,44.213407964952822],[-122.22616184986168,44.213980482057643],[-122.22632382271975,44.21440024236],[-122.22669342942753,44.214857428585361],[-122.22693987862387,44.215219240522067],[-122.22718866946005,44.215400999967372],[-122.22773161147559,44.215404689656459],[-122.22802344641599,44.215465193880739],[-122.22848346127631,44.215468316825429],[-122.22906357638237,44.215863900085772],[-122.22922555079406,44.216225134157803],[-122.22942977425689,44.216586654377039],[-122.22984676022466,44.216711025968301],[-122.23017773923856,44.216951857729384],[-122.23050982703366,44.217107163811306],[-122.23049936527499,44.217129601473722],[-122.23071757913594,44.217257125883663],[-122.23113460461572,44.217318469302711],[-122.23184499072062,44.217323271892582],[-122.23272396374685,44.217239174180698],[-122.23343394323017,44.217275476016475],[-122.23385247870576,44.217219775594842],[-122.23452105140234,44.21725128989516],[-122.23481400254462,44.217226252070915],[-122.23518759995908,44.217440346047255],[-122.23551860521837,44.217681162543073],[-122.23581161592858,44.217651620870484],[-122.23627164879579,44.217654712612934],[-122.23668862545018,44.217720537140146],[-122.2371471586239,44.217840659401098],[-122.23756454133819,44.217874971582731],[-122.23789555889307,44.218115781284986],[-122.23835288780947,44.218330426264131],[-122.2388958583919,44.218334063144248],[-122.23943575691445,44.218639290557974],[-122.23972376730673,44.219001352988258],[-122.24001293099828,44.219273388468764],[-122.24076174357056,44.219580006211544],[-122.24116052942659,44.21978524550584],[-122.24170955259505,44.219437777153878],[-122.24230057166095,44.218987047053062]]]},"properties":{"GAGEDWS_":10,"WS_":"3","HECTARES":92.941703796386719,"F_AREA":929464.52995899995,"OBJECTID":9,"Shape_Length":4286.7764388965679,"Shape_Area":929464.52995973569}},{"type":"Feature","id":10,"geometry":{"type":"Polygon","coordinates":[[[-122.2303672469332,44.208107301377041],[-122.23058028733116,44.208450872877847],[-122.23074460433335,44.208690575121473],[-122.23090773325487,44.208961781001442],[-122.23119639979666,44.209265347605964],[-122.23199004118979,44.20929772227786],[-122.23245035635325,44.209273820943849],[-122.23320213312365,44.209337416444924],[-122.23370315441528,44.209372306760692],[-122.23449639363692,44.20943617323276],[-122.23487034564251,44.209618758880801],[-122.23545006941129,44.209982795521313],[-122.23619371424174,44.210681056691996],[-122.23648091539542,44.211101644341525],[-122.2368951333452,44.211379029527976],[-122.23747837974126,44.211531499510137],[-122.2381809765793,44.212139438284346],[-122.23834608378205,44.212320612721946],[-122.23893319969709,44.212171487222065],[-122.23918506475387,44.212114651101388],[-122.23976832456266,44.212267109493837],[-122.2404364067754,44.212271575574846],[-122.24081114189102,44.212395624886284],[-122.24097740599025,44.212486769230054],[-122.24151957709269,44.212548910290792],[-122.24181135522474,44.21261388064022],[-122.24213694499737,44.212665570571971],[-122.24226730315058,44.212688948120977],[-122.2425770577222,44.212632490399699],[-122.24301856291406,44.212428353129425],[-122.24351032227801,44.212148019655849],[-122.24459117352413,44.211560982937648],[-122.24479133135455,44.211139152830945],[-122.24504076977034,44.210717649649332],[-122.24514254983868,44.210403206317658],[-122.24519504581514,44.210088435627114],[-122.24524878000047,44.209737659478861],[-122.24539997020339,44.209351516639828],[-122.24550305791571,44.208933542362516],[-122.24565515682163,44.208475377864197],[-122.24589699901503,44.207972791454559],[-122.24588394491963,44.207891674143028],[-122.24561622267355,44.207349692970155],[-122.24547575509996,44.207137180469161],[-122.24531064010088,44.206956016103028],[-122.24489407230143,44.206863215568909],[-122.24455927943254,44.206860991131194],[-122.2439741742308,44.206857101207142],[-122.24330615319536,44.20685265637406],[-122.24309924453902,44.206698220846846],[-122.24285084116939,44.206484986383906],[-122.24235132788856,44.206333101901691],[-122.24193362305806,44.206330317137869],[-122.24155966957788,44.206147754496811],[-122.24130817664972,44.206177588226367],[-122.24105826902235,44.206144408093671],[-122.24064016377115,44.206173127875303],[-122.24034571947706,44.206319716927389],[-122.23967692290945,44.206315245702235],[-122.23917552113981,44.206311891023184],[-122.23867411945729,44.206308534143908],[-122.23850712788263,44.206275903706619],[-122.23808976948644,44.206246096972819],[-122.23779877642319,44.206122600220063],[-122.23759107791122,44.206031173326572],[-122.23729893359494,44.205997701700177],[-122.23694055784934,44.205882754070828],[-122.23597528662542,44.206060840695784],[-122.23514521449675,44.206127286217701],[-122.23485220332302,44.206161328085031],[-122.23455652932135,44.206402429710018],[-122.2342115150209,44.206647699899534],[-122.23362461681647,44.206783297735001],[-122.23318320977961,44.206919874016251],[-122.23293822749153,44.206990248549616],[-122.23225220917786,44.207228709653947],[-122.23131933862808,44.207681579532306],[-122.2306808735716,44.207992379912653],[-122.2303672469332,44.208107301377041]]]},"properties":{"GAGEDWS_":11,"WS_":"2","HECTARES":59.131500244140625,"F_AREA":591345.56627700001,"OBJECTID":10,"Shape_Length":3264.0410927750104,"Shape_Area":591345.56627708988}},{"type":"Feature","id":11,"geometry":{"type":"Polygon","coordinates":[[[-122.25645626533986,44.207803672931],[-122.25683441494142,44.207842153158694],[-122.25775280581571,44.207906660562955],[-122.25854677028389,44.207911828937362],[-122.25930112432822,44.207768178055105],[-122.2597530324842,44.207600049511612],[-122.25926336323037,44.207407796127832],[-122.2588901382489,44.207162277464278],[-122.2587690728549,44.20683286550797],[-122.25881282520474,44.206711603987955],[-122.25839882442698,44.206348774083025],[-122.258237820229,44.205897555495596],[-122.25795088449324,44.205445516718747],[-122.25775473387513,44.205178638551367],[-122.25764447380911,44.205677609959139],[-122.25749208484247,44.206167303326886],[-122.25734188256988,44.206481444121643],[-122.25733705492816,44.206868559477776],[-122.2573811740338,44.207219980117657],[-122.25698775641841,44.207465009668503],[-122.25645626533986,44.207803672931]]]},"properties":{"GAGEDWS_":13,"WS_":"1a","HECTARES":0,"F_AREA":30482.618450099999,"OBJECTID":11,"Shape_Length":929.29475772845274,"Shape_Area":30482.618449645452}},{"type":"Feature","id":12,"geometry":{"type":"Polygon","coordinates":[[[-122.24213694499737,44.212665570571971],[-122.24276646844449,44.213056912292465],[-122.24378820497687,44.213306806045118],[-122.24446802125286,44.213558920219796],[-122.24471079010182,44.213664072720668],[-122.24539107105562,44.213880170883314],[-122.24587610239972,44.214130983400381],[-122.24679785903815,44.214555753250742],[-122.24689297357578,44.214767963425317],[-122.24727846221933,44.215157663132707],[-122.2481028503199,44.215550265698226],[-122.24933109188775,44.215747455368927],[-122.25021351123455,44.214578335682319],[-122.25046598618771,44.213913748959449],[-122.2503267776077,44.21335011808889],[-122.24979714404688,44.212788412535552],[-122.24912083331999,44.212257247568495],[-122.2485380163436,44.212005802326104],[-122.24767421901706,44.211639952168319],[-122.24738485718663,44.21150748722571],[-122.24717861907727,44.211236019289693],[-122.24705766628571,44.210902092078214],[-122.24685255573885,44.210603620777832],[-122.24668742683505,44.210422458384613],[-122.24640021231815,44.209997394381226],[-122.24623814838282,44.209636183456809],[-122.24607302407593,44.209455020186795],[-122.24603578260657,44.209121647001083],[-122.2460836832807,44.208613271999546],[-122.2459223820775,44.208130519553734],[-122.24589699901503,44.207972791454559],[-122.24565515682163,44.208475377864197],[-122.24550305791571,44.208933542362516],[-122.24539997020339,44.209351516639828],[-122.24524878000047,44.209737659478861],[-122.24519504581514,44.210088435627114],[-122.24514254983868,44.210403206317658],[-122.24504076977034,44.210717649649332],[-122.24479133135455,44.211139152830945],[-122.24459117352413,44.211560982937648],[-122.24351032227801,44.212148019655849],[-122.24301856291406,44.212428353129425],[-122.2425770577222,44.212632490399699],[-122.24226730315058,44.212688948120977],[-122.24213694499737,44.212665570571971]]]},"properties":{"GAGEDWS_":15,"WS_":"2a","HECTARES":0,"F_AREA":208324.833499,"OBJECTID":12,"Shape_Length":2362.7867896315215,"Shape_Area":208324.83349850937}}]}